{
  "type": "FeatureCollection",
  "features": [
    {
      "type": "Feature",
      "properties": {
        "norad_id": 66621,
        "name": "STARLINK-35847",
        "group": "last-30-days",
        "lat": -32.22382696561975,
        "lon": 61.746322376403405,
        "alt_km": 353.6716002427029,
        "timestamp": "2025-12-07T07:31:35.087080+00:00",
        "meta_object_name": "STARLINK-35847",
        "meta_object_id": "2025-271E",
        "meta_epoch": "2025-12-06T22:00:01.999584",
        "meta_mean_motion": 15.74578632,
        "meta_eccentricity": 0.00011489,
        "meta_inclination": 53.1577,
        "meta_ra_of_asc_node": 215.5124,
        "meta_arg_of_pericenter": 87.166,
        "meta_mean_anomaly": 44.2088,
        "meta_ephemeris_type": 0,
        "meta_classification_type": "U",
        "meta_norad_cat_id": 66621,
        "meta_element_set_no": 999,
        "meta_rev_at_epoch": 330,
        "meta_bstar": -0.010355992,
        "meta_mean_motion_dot": -0.01372481,
        "meta_mean_motion_ddot": 0,
        "tle_line1": "1 66621U 25271E   25340.91668981 -.01372481  00000+0 -10356-1 0  9993",
        "tle_line2": "2 66621  53.1577 215.5124 0001148  87.1660  44.2088 15.74578632  3303"
      },
      "geometry": {
        "type": "Point",
        "coordinates": [
          61.746322376403405,
          -32.22382696561975
        ]
      }
    },
    {
      "type": "Feature",
      "properties": {
        "norad_id": 66622,
        "name": "STARLINK-35950",
        "group": "last-30-days",
        "lat": 4.358653262424715,
        "lon": 30.36645917697326,
        "alt_km": 349.65551138040155,
        "timestamp": "2025-12-07T07:31:35.087092+00:00",
        "meta_object_name": "STARLINK-35950",
        "meta_object_id": "2025-271F",
        "meta_epoch": "2025-12-06T22:00:01.999584",
        "meta_mean_motion": 15.74591892,
        "meta_eccentricity": 0.0001509,
        "meta_inclination": 53.1581,
        "meta_ra_of_asc_node": 215.6123,
        "meta_arg_of_pericenter": 70.6386,
        "meta_mean_anomaly": 13.4567,
        "meta_ephemeris_type": 0,
        "meta_classification_type": "U",
        "meta_norad_cat_id": 66622,
        "meta_element_set_no": 999,
        "meta_rev_at_epoch": 330,
        "meta_bstar": -0.010509401,
        "meta_mean_motion_dot": -0.01391455,
        "meta_mean_motion_ddot": 0,
        "tle_line1": "1 66622U 25271F   25340.91668981 -.01391455  00000+0 -10509-1 0  9996",
        "tle_line2": "2 66622  53.1581 215.6123 0001509  70.6386  13.4567 15.74591892  3305"
      },
      "geometry": {
        "type": "Point",
        "coordinates": [
          30.36645917697326,
          4.358653262424715
        ]
      }
    },
    {
      "type": "Feature",
      "properties": {
        "norad_id": 66623,
        "name": "STARLINK-35920",
        "group": "last-30-days",
        "lat": 1.297351303229265,
        "lon": 32.661656441678815,
        "alt_km": 349.63563209417043,
        "timestamp": "2025-12-07T07:31:35.087102+00:00",
        "meta_object_name": "STARLINK-35920",
        "meta_object_id": "2025-271G",
        "meta_epoch": "2025-12-06T22:00:01.999584",
        "meta_mean_motion": 15.74671208,
        "meta_eccentricity": 0.00010981,
        "meta_inclination": 53.1578,
        "meta_ra_of_asc_node": 215.6044,
        "meta_arg_of_pericenter": 115.8393,
        "meta_mean_anomaly": 332.0456,
        "meta_ephemeris_type": 0,
        "meta_classification_type": "U",
        "meta_norad_cat_id": 66623,
        "meta_element_set_no": 999,
        "meta_rev_at_epoch": 330,
        "meta_bstar": -0.011324732,
        "meta_mean_motion_dot": -0.01490689,
        "meta_mean_motion_ddot": 0,
        "tle_line1": "1 66623U 25271G   25340.91668981 -.01490689  00000+0 -11325-1 0  9993",
        "tle_line2": "2 66623  53.1578 215.6044 0001098 115.8393 332.0456 15.74671208  3304"
      },
      "geometry": {
        "type": "Point",
        "coordinates": [
          32.661656441678815,
          1.297351303229265
        ]
      }
    },
    {
      "type": "Feature",
      "properties": {
        "norad_id": 66624,
        "name": "STARLINK-35927",
        "group": "last-30-days",
        "lat": 2.8385631488109784,
        "lon": 31.508299809526207,
        "alt_km": 350.02448064743476,
        "timestamp": "2025-12-07T07:31:35.087114+00:00",
        "meta_object_name": "STARLINK-35927",
        "meta_object_id": "2025-271H",
        "meta_epoch": "2025-12-06T22:00:01.999584",
        "meta_mean_motion": 15.74645285,
        "meta_eccentricity": 7.857e-05,
        "meta_inclination": 53.1581,
        "meta_ra_of_asc_node": 215.6086,
        "meta_arg_of_pericenter": 63.4032,
        "meta_mean_anomaly": 22.5681,
        "meta_ephemeris_type": 0,
        "meta_classification_type": "U",
        "meta_norad_cat_id": 66624,
        "meta_element_set_no": 999,
        "meta_rev_at_epoch": 330,
        "meta_bstar": -0.010991253,
        "meta_mean_motion_dot": -0.01450346,
        "meta_mean_motion_ddot": 0,
        "tle_line1": "1 66624U 25271H   25340.91668981 -.01450346  00000+0 -10991-1 0  9998",
        "tle_line2": "2 66624  53.1581 215.6086 0000785  63.4032  22.5681 15.74645285  3302"
      },
      "geometry": {
        "type": "Point",
        "coordinates": [
          31.508299809526207,
          2.8385631488109784
        ]
      }
    },
    {
      "type": "Feature",
      "properties": {
        "norad_id": 66625,
        "name": "STARLINK-35929",
        "group": "last-30-days",
        "lat": -0.24298511691256988,
        "lon": 33.81287868745944,
        "alt_km": 350.1832816391916,
        "timestamp": "2025-12-07T07:31:35.087124+00:00",
        "meta_object_name": "STARLINK-35929",
        "meta_object_id": "2025-271J",
        "meta_epoch": "2025-12-06T22:00:01.999584",
        "meta_mean_motion": 15.74623107,
        "meta_eccentricity": 0.00012423,
        "meta_inclination": 53.1581,
        "meta_ra_of_asc_node": 215.6004,
        "meta_arg_of_pericenter": 84.7473,
        "meta_mean_anomaly": 5.093,
        "meta_ephemeris_type": 0,
        "meta_classification_type": "U",
        "meta_norad_cat_id": 66625,
        "meta_element_set_no": 999,
        "meta_rev_at_epoch": 330,
        "meta_bstar": -0.010907561,
        "meta_mean_motion_dot": -0.01439623,
        "meta_mean_motion_ddot": 0,
        "tle_line1": "1 66625U 25271J   25340.91668981 -.01439623  00000+0 -10908-1 0  9992",
        "tle_line2": "2 66625  53.1581 215.6004 0001242  84.7473   5.0930 15.74623107  3309"
      },
      "geometry": {
        "type": "Point",
        "coordinates": [
          33.81287868745944,
          -0.24298511691256988
        ]
      }
    },
    {
      "type": "Feature",
      "properties": {
        "norad_id": 66626,
        "name": "STARLINK-35902",
        "group": "last-30-days",
        "lat": -1.7781473509071493,
        "lon": 34.95999995480603,
        "alt_km": 350.4103359568562,
        "timestamp": "2025-12-07T07:31:35.087134+00:00",
        "meta_object_name": "STARLINK-35902",
        "meta_object_id": "2025-271K",
        "meta_epoch": "2025-12-06T22:00:01.999584",
        "meta_mean_motion": 15.74546719,
        "meta_eccentricity": 9.369e-05,
        "meta_inclination": 53.1578,
        "meta_ra_of_asc_node": 215.5958,
        "meta_arg_of_pericenter": 96.8292,
        "meta_mean_anomaly": 355.0003,
        "meta_ephemeris_type": 0,
        "meta_classification_type": "U",
        "meta_norad_cat_id": 66626,
        "meta_element_set_no": 999,
        "meta_rev_at_epoch": 330,
        "meta_bstar": -0.010425565,
        "meta_mean_motion_dot": -0.01378846,
        "meta_mean_motion_ddot": 0,
        "tle_line1": "1 66626U 25271K   25340.91668981 -.01378846  00000+0 -10426-1 0  9997",
        "tle_line2": "2 66626  53.1578 215.5958 0000936  96.8292 355.0003 15.74546719  3307"
      },
      "geometry": {
        "type": "Point",
        "coordinates": [
          34.95999995480603,
          -1.7781473509071493
        ]
      }
    },
    {
      "type": "Feature",
      "properties": {
        "norad_id": 66627,
        "name": "STARLINK-35904",
        "group": "last-30-days",
        "lat": -3.3232980898911566,
        "lon": 36.11733560327443,
        "alt_km": 351.07769752621243,
        "timestamp": "2025-12-07T07:31:35.087144+00:00",
        "meta_object_name": "STARLINK-35904",
        "meta_object_id": "2025-271L",
        "meta_epoch": "2025-12-06T22:00:01.999584",
        "meta_mean_motion": 15.74570013,
        "meta_eccentricity": 7.752e-05,
        "meta_inclination": 53.1576,
        "meta_ra_of_asc_node": 215.5915,
        "meta_arg_of_pericenter": 68.4935,
        "meta_mean_anomaly": 25.2927,
        "meta_ephemeris_type": 0,
        "meta_classification_type": "U",
        "meta_norad_cat_id": 66627,
        "meta_element_set_no": 999,
        "meta_rev_at_epoch": 314,
        "meta_bstar": -0.0110799,
        "meta_mean_motion_dot": -0.01456402,
        "meta_mean_motion_ddot": 0,
        "tle_line1": "1 66627U 25271L   25340.91668981 -.01456402  00000+0 -11080-1 0  9990",
        "tle_line2": "2 66627  53.1576 215.5915 0000775  68.4935  25.2927 15.74570013  3146"
      },
      "geometry": {
        "type": "Point",
        "coordinates": [
          36.11733560327443,
          -3.3232980898911566
        ]
      }
    }
  ]
}